0 FENGYUN 1C DEB
1 30070U 99025PX  13282.85427804  .00003630  00000-0  16431-2 0  1361
2 30070 098.3154 012.8914 0416719 156.6692 344.7107 13.84988923339792
0 FENGYUN 1C DEB
1 30070U 99025PX  13284.20528510  .00004704  00000-0  21241-2 0  1377
2 30070 098.3152 014.0938 0416660 152.9504 240.7910 13.84998341339989
0 FENGYUN 1C DEB
1 30070U 99025PX  13285.22163292  .00003822  00000-0  17288-2 0  1389
2 30070 098.3153 014.9982 0416625 150.1582 268.2976 13.85005595340121
0 FENGYUN 1C DEB
1 30070U 99025PX  13286.75744501  .00004609  00000-0  20804-2 0  1399
2 30070 098.3157 016.3648 0416653 145.9249 005.9170 13.85015435340332
0 FENGYUN 1C DEB
1 30070U 99025PX  13287.84012163  .00006334  00000-0  28525-2 0  1409
2 30070 098.3163 017.3281 0416588 142.9471 004.2146 13.85025262340484
0 FENGYUN 1C DEB
1 30070U 99025PX  13289.19027273  .00005908  00000-0  26614-2 0  1411
2 30070 098.3169 018.5296 0416468 139.2393 256.2224 13.85045077340671
0 FENGYUN 1C DEB
1 30070U 99025PX  13290.20126383  .00004890  00000-0  22062-2 0  1420
2 30070 098.3168 019.4295 0416400 136.4683 257.1856 13.85054076340812
0 FENGYUN 1C DEB
1 30070U 99025PX  13291.50887971  .00004658  00000-0  21024-2 0  1431
2 30070 098.3164 020.5934 0416334 132.8763 297.2320 13.85065168340990
0 FENGYUN 1C DEB
1 30070U 99025PX  13292.81983427  .00004832  00000-0  21798-2 0  1442
2 30070 098.3160 021.7603 0416324 129.2643 353.9839 13.85074809341176
0 FENGYUN 1C DEB
1 30070U 99025PX  13293.83621149  .00005453  00000-0  24574-2 0  1451
2 30070 098.3158 022.6648 0416267 126.4657 021.9297 13.85081992341319
0 FENGYUN 1C DEB
1 30070U 99025PX  13295.48084553  .00005422  00000-0  24438-2 0  1462
2 30070 098.3155 024.1282 0416128 121.9450 302.5988 13.85098277341548
